[{"OBJECT_NAME":"STARLINK-35170","OBJECT_ID":"2025-200N","EPOCH":"2026-03-09T18:02:30.421536","MEAN_MOTION":15.05642028,"ECCENTRICITY":0.00012924,"INCLINATION":97.6039,"RA_OF_ASC_NODE":139.9135,"ARG_OF_PERICENTER":106.0695,"MEAN_ANOMALY":254.0674,"EPHEMERIS_TYPE":0,"CLASSIFICATION_TYPE":"U","NORAD_CAT_ID":65532,"ELEMENT_SET_NO":999,"REV_AT_EPOCH":2914,"BSTAR":0.00026847208,"MEAN_MOTION_DOT":3.814e-5,"MEAN_MOTION_DDOT":0},{"OBJECT_NAME":"MINOTAUR 4 R\/B","OBJECT_ID":"2020-046E","EPOCH":"2026-03-09T23:21:28.488960","MEAN_MOTION":15.06543892,"ECCENTRICITY":0.00095926,"INCLINATION":53.9792,"RA_OF_ASC_NODE":306.0413,"ARG_OF_PERICENTER":86.078,"MEAN_ANOMALY":274.1318,"EPHEMERIS_TYPE":0,"CLASSIFICATION_TYPE":"U","NORAD_CAT_ID":45877,"ELEMENT_SET_NO":999,"REV_AT_EPOCH":23396,"BSTAR":0.00016618262,"MEAN_MOTION_DOT":2.204e-5,"MEAN_MOTION_DDOT":0}]
